NORAD_CAT_ID,OBJECT_NAME,OBJECT_TYPE,EPOCH,MEAN_MOTION,ECCENTRICITY,INCLINATION,RA_OF_ASC_NODE,ARG_OF_PERICENTER,MEAN_ANOMALY,BSTAR,MEAN_MOTION_DOT,MEAN_MOTION_DDOT,TLE_LINE0,TLE_LINE1,TLE_LINE2,SEMIMAJOR_AXIS,PERIOD,APOGEE,PERIGEE,DECAYED
51896.0,STARLINK-3593,PAYLOAD,2022-11-12 14:43:14,15.08834677,0.0002042,53.2194,44.8311,34.1397,325.9726,8.708299999999999e-05,1.098e-05,0.0,0 STARLINK-3593,1 51896U 22022AW  22316.61336455  .00001098  00000-0  87083-4 0  9992,2 51896  53.2194  44.8311 0002042  34.1397 325.9726 15.08834677 40165,6917.897,95.438,541.174,538.349,0.0
51896.0,STARLINK-3593,PAYLOAD,2022-11-12 22:40:09,15.08843317,0.0002058,53.2196,43.3444,34.9322,325.1805,0.00015707,2.213e-05,0.0,0 STARLINK-3593,1 51896U 22022AW  22316.94455978  .00002213  00000-0  15707-3 0  9993,2 51896  53.2196  43.3444 0002058  34.9322 325.1805 15.08843317 40218,6917.87,95.437,541.159,538.312,0.0
51896.0,STARLINK-3593,PAYLOAD,2022-11-13 11:23:15,15.08839389,0.0001999,53.2209,40.966,37.7708,322.3424,7.2501e-05,8.66e-06,0.0,0 STARLINK-3593,1 51896U 22022AW  22317.47448410  .00000866  00000-0  72501-4 0  9993,2 51896  53.2209  40.9660 0001999  37.7708 322.3424 15.08839389 40296,6917.882,95.438,541.13,538.364,0.0
51896.0,STARLINK-3593,PAYLOAD,2022-11-13 17:44:48,15.08828987,0.0002303,53.2198,39.7773,33.9437,326.1702,2.3795e-05,9.000000000000002e-07,0.0,0 STARLINK-3593,1 51896U 22022AW  22317.73945378  .00000090  00000-0  23795-4 0  9997,2 51896  53.2198  39.7773 0002303  33.9437 326.1702 15.08828987 40339,6917.9140000000025,95.438,541.372,538.186,0.0
51896.0,STARLINK-3593,PAYLOAD,2022-11-14 11:14:03,15.08829393,0.0002181,53.2198,36.5059,34.32,325.7933,3.904e-05,3.33e-06,0.0,0 STARLINK-3593,1 51896U 22022AW  22318.46809575  .00000333  00000-0  39040-4 0  9996,2 51896  53.2198  36.5059 0002181  34.3200 325.7933 15.08829393 40443,6917.913000000001,95.438,541.2869999999998,538.269,0.0
51896.0,STARLINK-3593,PAYLOAD,2022-11-14 17:35:36,15.08831393,0.0002211,53.22,35.3165,33.138000000000005,326.975,7.9171e-05,9.72e-06,0.0,0 STARLINK-3593,1 51896U 22022AW  22318.73305596  .00000972  00000-0  79171-4 0  9998,2 51896  53.2200  35.3165 0002211  33.1380 326.9750 15.08831393 40489,6917.906999999997,95.438,541.3009999999998,538.242,0.0
51896.0,STARLINK-3593,PAYLOAD,2022-11-15 04:43:17,15.08840165,0.0002237,53.2199,33.2351,35.0005,325.1134,0.00014499,2.02e-05,0.0,0 STARLINK-3593,1 51896U 22022AW  22319.19673011  .00002020  00000-0  14499-3 0  9996,2 51896  53.2199  33.2351 0002237  35.0005 325.1134 15.08840165 40555,6917.88,95.438,541.2919999999998,538.197,0.0
51896.0,STARLINK-3593,PAYLOAD,2022-11-15 12:40:13,15.08839193,0.0002246,53.2191,31.7486,38.3281,321.7870000000001,0.00013377,1.841e-05,0.0,0 STARLINK-3593,1 51896U 22022AW  22319.52793240  .00001841  00000-0  13377-3 0  9994,2 51896  53.2191  31.7486 0002246  38.3281 321.7870 15.08839193 40605,6917.8830000000025,95.438,541.302,538.194,0.0
51896.0,STARLINK-3593,PAYLOAD,2022-11-15 14:15:36,15.08837124,0.0002274,53.2191,31.4514,33.9658,326.1479,0.00010086,1.317e-05,0.0,0 STARLINK-3593,1 51896U 22022AW  22319.59417371  .00001317  00000-0  10086-3 0  9991,2 51896  53.2191  31.4514 0002274  33.9658 326.1479 15.08837124 40611,6917.889,95.438,541.327,538.181,0.0
51896.0,STARLINK-3593,PAYLOAD,2022-11-16 10:55:36,15.08852667,0.0002322,53.2193,27.5858,33.6846,326.4294,0.00037996,5.766e-05,0.0,0 STARLINK-3593,1 51896U 22022AW  22320.45528665  .00005766  00000-0  37996-3 0  9998,2 51896  53.2193  27.5858 0002322  33.6846 326.4294 15.08852667 40741,6917.842,95.437,541.313,538.1,0.0
51896.0,STARLINK-3593,PAYLOAD,2022-11-16 14:06:23,15.08847917,0.0002015,53.2197,26.9882,27.9006,332.2094,0.0004412,6.742e-05,0.0,0 STARLINK-3593,1 51896U 22022AW  22320.58776831  .00006742  00000-0  44120-3 0  9994,2 51896  53.2197  26.9882 0002015  27.9006 332.2094 15.08847917 40765,6917.856,95.437,541.115,538.327,0.0
51896.0,STARLINK-3593,PAYLOAD,2022-11-16 22:03:18,15.0884629,0.0002192,53.2191,25.503,32.705,327.4078,0.00014648,2.044e-05,0.0,0 STARLINK-3593,1 51896U 22022AW  22320.91896730  .00002044  00000-0  14648-3 0  9995,2 51896  53.2191  25.5030 0002192  32.7050 327.4078 15.08846290 40815,6917.861,95.437,541.243,538.21,0.0
51896.0,STARLINK-3593,PAYLOAD,2022-11-17 12:21:47,15.08842221,0.0002367,53.2192,22.8276,34.0773,326.0371,7.0848e-05,8.39e-06,0.0,0 STARLINK-3593,1 51896U 22022AW  22321.51512939  .00000839  00000-0  70848-4 0  9993,2 51896  53.2192  22.8276 0002367  34.0773 326.0371 15.08842221 40900,6917.874,95.437,541.376,538.101,0.0
51896.0,STARLINK-3593,PAYLOAD,2022-11-18 10:37:10,15.08847329,0.0002395,53.2199,18.665,37.6782,322.4378,-1.2013e-05,-4.8e-06,0.0,0 STARLINK-3593,1 51896U 22022AW  22322.44248558 -.00000480  00000-0 -12013-4 0  9993,2 51896  53.2199  18.6650 0002395  37.6782 322.4378 15.08847329 41043,6917.858,95.437,541.38,538.066,0.0
51896.0,STARLINK-3593,PAYLOAD,2022-11-18 13:47:57,15.08844706,0.0002406,53.2199,18.0704,39.5529,320.5639,3.7474e-05,3.08e-06,0.0,0 STARLINK-3593,1 51896U 22022AW  22322.57496670  .00000308  00000-0  37474-4 0  9992,2 51896  53.2199  18.0704 0002406  39.5529 320.5639 15.08844706 41067,6917.866,95.437,541.395,538.067,0.0
51896.0,STARLINK-3593,PAYLOAD,2022-11-19 10:27:57,15.08854814,0.0002558,53.2198,14.2049,37.1475,322.9694,3.072800000000001e-07,-2.84e-06,0.0,0 STARLINK-3593,1 51896U 22022AW  22323.43607773 -.00000284  00000-0  30728-6 0  9997,2 51896  53.2198  14.2049 0002558  37.1475 322.9694 15.08854814 41190,6917.835,95.437,541.47,537.931,0.0
51896.0,STARLINK-3593,PAYLOAD,2022-11-19 20:00:16,15.08841195,0.000253,53.2199,12.4211,37.2029,322.9139,6.7667e-05,7.89e-06,0.0,0 STARLINK-3593,1 51896U 22022AW  22323.83352454  .00000789  00000-0  67667-4 0  9993,2 51896  53.2199  12.4211 0002530  37.2029 322.9139 15.08841195 41257,6917.877,95.437,541.492,537.992,0.0
51896.0,STARLINK-3593,PAYLOAD,2022-11-20 03:57:12,15.08840643,0.000252,53.2201,10.9344,35.6993,324.4167,5.5078e-05,5.88e-06,0.0,0 STARLINK-3593,1 51896U 22022AW  22324.16472572  .00000588  00000-0  55078-4 0  9994,2 51896  53.2201  10.9344 0002520  35.6993 324.4167 15.08840643 41303,6917.878000000002,95.438,541.487,538.0,0.0
51896.0,STARLINK-3593,PAYLOAD,2022-11-20 11:54:07,15.088632,0.000243,53.2204,9.4481,33.7694,326.3453,-0.00029035,-4.91e-05,0.0,0 STARLINK-3593,1 51896U 22022AW  22324.49591979 -.00004910  00000-0 -29035-3 0  9991,2 51896  53.2204   9.4481 0002430  33.7694 326.3453 15.08863200 41356,6917.809,95.436,541.356,537.993,0.0
51896.0,STARLINK-3593,PAYLOAD,2022-11-20 19:51:04,15.0883176,0.0002575,53.2201,7.9612,36.9283,323.1886,-4.6922e-05,-1.035e-05,0.0,0 STARLINK-3593,1 51896U 22022AW  22324.82713379 -.00001035  00000-0 -46922-4 0  9998,2 51896  53.2201   7.9612 0002575  36.9283 323.1886 15.08831760 41408,6917.906,95.438,541.552,537.989,0.0
51896.0,STARLINK-3593,PAYLOAD,2022-11-21 11:44:55,15.08835588,0.0002734,53.2199,4.9851,24.7116,335.4006,-1.1878e-05,-4.78e-06,0.0,0 STARLINK-3593,1 51896U 22022AW  22325.48953137 -.00000478  00000-0 -11878-4 0  9991,2 51896  53.2199   4.9851 0002734  24.7116 335.4006 15.08835588 41506,6917.894,95.438,541.65,537.868,0.0
51896.0,STARLINK-3593,PAYLOAD,2022-11-21 13:20:18,15.08832928,0.0002395,53.2199,4.689,30.7534,329.3598,-3.2169e-05,-8e-06,0.0,0 STARLINK-3593,1 51896U 22022AW  22325.55577347 -.00000800  00000-0 -32169-4 0  9999,2 51896  53.2199   4.6890 0002395  30.7534 329.3598 15.08832928 41514,6917.901999999999,95.438,541.424,538.11,0.0
51896.0,STARLINK-3593,PAYLOAD,2022-11-22 05:14:10,15.08833045,0.0002493,53.2212,1.713,27.1064,333.0058,9.7728e-05,1.267e-05,0.0,0 STARLINK-3593,1 51896U 22022AW  22326.21817192  .00001267  00000-0  97728-4 0  9996,2 51896  53.2212   1.7130 0002493  27.1064 333.0058 15.08833045 41617,6917.901999999999,95.438,541.491,538.0419999999998,0.0
51896.0,STARLINK-3593,PAYLOAD,2022-11-22 10:00:19,15.08841437,0.0002258,53.2206,0.8221,41.2751,318.8411,6.8366e-05,8e-06,0.0,0 STARLINK-3593,1 51896U 22022AW  22326.41688875  .00000800  00000-0  68366-4 0  9990,2 51896  53.2206   0.8221 0002258  41.2751 318.8411 15.08841437 41641,6917.876,95.437,541.303,538.179,0.0
51896.0,STARLINK-3593,PAYLOAD,2022-11-22 14:46:28,15.08845222,0.0002337,53.2204,359.931,37.4624,322.6531,0.00010177,1.332e-05,0.0,0 STARLINK-3593,1 51896U 22022AW  22326.61560578  .00001332  00000-0  10177-3 0  9998,2 51896  53.2204 359.9310 0002337  37.4624 322.6531 15.08845222 41675,6917.864000000001,95.437,541.346,538.113,0.0
51896.0,STARLINK-3593,PAYLOAD,2022-11-23 01:54:10,15.08836399,0.0002552,53.2201,357.8501,32.2574,327.8574,5.2266e-05,5.43e-06,0.0,0 STARLINK-3593,1 51896U 22022AW  22327.07929372  .00000543  00000-0  52266-4 0  9999,2 51896  53.2201 357.8501 0002552  32.2574 327.8574 15.08836399 41744,6917.891,95.438,541.5219999999998,537.991,0.0
51896.0,STARLINK-3593,PAYLOAD,2022-11-23 09:51:06,15.0885,0.0002634,53.2201,356.3634,32.2948,327.8205,-0.00012666,-2.304e-05,0.0,0 STARLINK-3593,1 51896U 22022AW  22327.41049211 -.00002304  00000-0 -12666-3 0  9990,2 51896  53.2201 356.3634 0002634  32.2948 327.8205 15.08850000 41792,6917.85,95.437,541.5369999999998,537.893,0.0
51896.0,STARLINK-3593,PAYLOAD,2022-11-23 19:23:25,15.08838048,0.000252,53.2202,354.5791,33.8225,326.2927,0.00014512,2.022e-05,0.0,0 STARLINK-3593,1 51896U 22022AW  22327.80793276  .00002022  00000-0  14512-3 0  9997,2 51896  53.2202 354.5791 0002520  33.8225 326.2927 15.08838048 41855,6917.886,95.438,541.495,538.008,0.0
51896.0,STARLINK-3593,PAYLOAD,2022-11-24 11:17:17,15.08833123,0.0002444,53.2204,351.605,36.0624,324.0533,4.0526e-05,3.57e-06,0.0,0 STARLINK-3593,1 51896U 22022AW  22328.47034015  .00000357  00000-0  40526-4 0  9994,2 51896  53.2204 351.6050 0002444  36.0624 324.0533 15.08833123 41955,6917.901,95.438,541.457,538.076,0.0
